"code_commune_INSEE","nom_commune_postal","code_postal","libelle_acheminement","ligne_5","latitude","longitude","code_commune","article","nom_commune","nom_commune_complet"
33001,"ABZAC",33230,"ABZAC",,"45.0106457764","-0.130179806678",1,,"Abzac","Abzac"
33002,"AILLAS",33124,"AILLAS",,"44.4835265148","-0.0662157307002",2,,"Aillas","Aillas"
33003,"AMBARES ET LAGRAVE",33440,"AMBARES ET LAGRAVE",,"44.9444897713","-0.500579133995",3,,"Ambarès-et-Lagrave","Ambarès-et-Lagrave"
33004,"AMBES",33810,"AMBES",,"45.0115337381","-0.548307688841",4,,"Ambès","Ambès"
33005,"ANDERNOS LES BAINS",33510,"ANDERNOS LES BAINS",,"44.754520164","-1.08109347037",5,,"Andernos-les-Bains","Andernos-les-Bains"
33006,"ANGLADE",33390,"ANGLADE",,"45.2115004641","-0.638219671471",6,,"Anglade","Anglade"
33007,"ARBANATS",33640,"ARBANATS",,"44.670996265","-0.40276700503",7,,"Arbanats","Arbanats"
33008,"ARBIS",33760,"ARBIS",,"44.6725868035","-0.2547200817",8,,"Arbis","Arbis"
33009,"ARCACHON",33120,"ARCACHON",,"44.6529002838","-1.17429790933",9,,"Arcachon","Arcachon"
33010,"ARCINS",33460,"ARCINS",,"45.0765827796","-0.70962789405",10,,"Arcins","Arcins"
33011,"ARES",33740,"ARES",,"44.7952271583","-1.07883221151",11,,"Arès","Arès"
33012,"ARSAC",33460,"ARSAC",,"44.9884555453","-0.701315089192",12,,"Arsac","Arsac"
33013,"ARTIGUES PRES BORDEAUX",33370,"ARTIGUES PRES BORDEAUX",,"44.8603385038","-0.490377864769",13,,"Artigues-près-Bordeaux","Artigues-près-Bordeaux"
33014,"LES ARTIGUES DE LUSSAC",33570,"LES ARTIGUES DE LUSSAC",,"44.9726275615","-0.140230577945",14,"Les","Artigues-de-Lussac","Les Artigues-de-Lussac"
33015,"ARVEYRES",33500,"ARVEYRES",,"44.8915609745","-0.2766650988",15,,"Arveyres","Arveyres"
33016,"ASQUES",33240,"ASQUES",,"44.948000841","-0.426140042682",16,,"Asques","Asques"
33017,"AUBIAC",33430,"AUBIAC",,"44.4707892679","-0.244457363295",17,,"Aubiac","Aubiac"
33018,"VAL DE VIRVEE",33240,"VAL DE VIRVEE","AUBIE ET ESPESSAS","45.0218017593","-0.404998298287",18,,"Val de Virvée","Val de Virvée"
33018,"VAL DE VIRVEE",33240,"VAL DE VIRVEE","SALIGNAC","45.0218017593","-0.404998298287",18,,"Val de Virvée","Val de Virvée"
33018,"VAL DE VIRVEE",33240,"VAL DE VIRVEE","ST ANTOINE","45.0218017593","-0.404998298287",18,,"Val de Virvée","Val de Virvée"
33019,"AUDENGE",33980,"AUDENGE",,"44.7138966628","-0.944173294479",19,,"Audenge","Audenge"
33020,"AURIOLLES",33790,"AURIOLLES",,"44.7369365281","0.0444966358061",20,,"Auriolles","Auriolles"
33021,"AUROS",33124,"AUROS",,"44.5076532706","-0.163740689311",21,,"Auros","Auros"
33022,"AVENSAN",33480,"AVENSAN",,"45.005403307","-0.760815427452",22,,"Avensan","Avensan"
33023,"AYGUEMORTE LES GRAVES",33640,"AYGUEMORTE LES GRAVES",,"44.702438627","-0.484145189594",23,,"Ayguemorte-les-Graves","Ayguemorte-les-Graves"
33024,"BAGAS",33190,"BAGAS",,"44.6187804528","-0.0489905524561",24,,"Bagas","Bagas"
33025,"BAIGNEAUX",33760,"BAIGNEAUX",,"44.7239086463","-0.193758554002",25,,"Baigneaux","Baigneaux"
33026,"BALIZAC",33730,"BALIZAC",,"44.4864307909","-0.448728461334",26,,"Balizac","Balizac"
33027,"BARIE",33190,"BARIE",,"44.5710681518","-0.111645415983",27,,"Barie","Barie"
33028,"BARON",33750,"BARON",,"44.8235731803","-0.317485301092",28,,"Baron","Baron"
33029,"LE BARP",33114,"LE BARP",,"44.6268462922","-0.746697894211",29,"Le","Barp","Le Barp"
33030,"BARSAC",33720,"BARSAC",,"44.6017775611","-0.323930210636",30,,"Barsac","Barsac"
33031,"BASSANNE",33190,"BASSANNE",,"44.560543686","-0.0931882578624",31,,"Bassanne","Bassanne"
33032,"BASSENS",33530,"BASSENS",,"44.9084140601","-0.525868280903",32,,"Bassens","Bassens"
33033,"BAURECH",33880,"BAURECH",,"44.7274813784","-0.433879900007",33,,"Baurech","Baurech"
33034,"BAYAS",33230,"BAYAS",,"45.0676036545","-0.209456063522",34,,"Bayas","Bayas"
33035,"BAYON SUR GIRONDE",33710,"BAYON SUR GIRONDE",,"45.0433426263","-0.609639022961",35,,"Bayon-sur-Gironde","Bayon-sur-Gironde"
33036,"BAZAS",33430,"BAZAS",,"44.4424533682","-0.212326795621",36,,"Bazas","Bazas"
33037,"BEAUTIRAN",33640,"BEAUTIRAN",,"44.7034400813","-0.459169831543",37,,"Beautiran","Beautiran"
33038,"BEGADAN",33340,"BEGADAN",,"45.3670708459","-0.8958001736",38,,"Bégadan","Bégadan"
33039,"BEGLES",33130,"BEGLES",,"44.8016009051","-0.547755768448",39,,"Bègles","Bègles"
33040,"BEGUEY",33410,"BEGUEY",,"44.6493296399","-0.325359958986",40,,"Béguey","Béguey"
33042,"BELIN BELIET",33830,"BELIN BELIET",,"44.4861918644","-0.786911494042",42,,"Belin-Béliet","Belin-Béliet"
33042,"BELIN BELIET",33830,"BELIN BELIET","BELIET","44.4861918644","-0.786911494042",42,,"Belin-Béliet","Belin-Béliet"
33043,"BELLEBAT",33760,"BELLEBAT",,"44.7382366196","-0.221985163561",43,,"Bellebat","Bellebat"
33044,"BELLEFOND",33760,"BELLEFOND",,"44.7676238446","-0.173810088464",44,,"Bellefond","Bellefond"
33045,"BELVES DE CASTILLON",33350,"BELVES DE CASTILLON",,"44.8784883678","-0.0279648094284",45,,"Belvès-de-Castillon","Belvès-de-Castillon"
33046,"BERNOS BEAULAC",33430,"BERNOS BEAULAC",,"44.3630023376","-0.259455361877",46,,"Bernos-Beaulac","Bernos-Beaulac"
33047,"BERSON",33390,"BERSON",,"45.1170453361","-0.574457509395",47,,"Berson","Berson"
33048,"BERTHEZ",33124,"BERTHEZ",,"44.4828924557","-0.128085813135",48,,"Berthez","Berthez"
33049,"BEYCHAC ET CAILLAU",33750,"BEYCHAC ET CAILLAU",,"44.8720986802","-0.371061505246",49,,"Beychac-et-Caillau","Beychac-et-Caillau"
33050,"BIEUJAC",33210,"BIEUJAC",,"44.5383649764","-0.154398483279",50,,"Bieujac","Bieujac"
33051,"BIGANOS",33380,"BIGANOS",,"44.6611063153","-0.948829442283",51,,"Biganos","Biganos"
33051,"BIGANOS",33380,"BIGANOS","FACTURE","44.6611063153","-0.948829442283",51,,"Biganos","Biganos"
33052,"LES BILLAUX",33500,"LES BILLAUX",,"44.962026014","-0.242724056573",52,"Les","Billaux","Les Billaux"
33053,"BIRAC",33430,"BIRAC",,"44.4124016589","-0.143472733247",53,,"Birac","Birac"
33054,"BLAIGNAC",33190,"BLAIGNAC",,"44.5509350184","-0.0541157193066",54,,"Blaignac","Blaignac"
33055,"BLAIGNAN",33340,"BLAIGNAN",,"45.3230869763","-0.865864603623",55,,"Blaignan","Blaignan"
33056,"BLANQUEFORT",33290,"BLANQUEFORT",,"44.9231492741","-0.612268950301",56,,"Blanquefort","Blanquefort"
33057,"BLASIMON",33540,"BLASIMON",,"44.7502132956","-0.089121338882",57,,"Blasimon","Blasimon"
33058,"BLAYE",33390,"BLAYE",,"45.127899764","-0.669707092291",58,,"Blaye","Blaye"
33059,"BLESIGNAC",33670,"BLESIGNAC",,"44.7773252644","-0.254997261945",59,,"Blésignac","Blésignac"
33060,"BOMMES",33210,"BOMMES",,"44.5529791814","-0.344933084862",60,,"Bommes","Bommes"
33061,"BONNETAN",33370,"BONNETAN",,"44.8193051355","-0.410997563502",61,,"Bonnetan","Bonnetan"
33062,"BONZAC",33910,"BONZAC",,"45.0072015945","-0.221528081748",62,,"Bonzac","Bonzac"
33063,"BORDEAUX",33000,"BORDEAUX",,"44.8572445351","-0.57369678116",63,,"Bordeaux","Bordeaux"
33063,"BORDEAUX",33100,"BORDEAUX",,"44.8572445351","-0.57369678116",63,,"Bordeaux","Bordeaux"
33063,"BORDEAUX",33200,"BORDEAUX",,"44.8572445351","-0.57369678116",63,,"Bordeaux","Bordeaux"
33063,"BORDEAUX",33300,"BORDEAUX",,"44.8572445351","-0.57369678116",63,,"Bordeaux","Bordeaux"
33063,"BORDEAUX",33800,"BORDEAUX",,"44.8572445351","-0.57369678116",63,,"Bordeaux","Bordeaux"
33064,"BOSSUGAN",33350,"BOSSUGAN",,"44.7915487429","-0.0519671900335",64,,"Bossugan","Bossugan"
33065,"BOULIAC",33270,"BOULIAC",,"44.8160953539","-0.50487313207",65,,"Bouliac","Bouliac"
33066,"BOURDELLES",33190,"BOURDELLES",,"44.5585840825","0.00571308872513",66,,"Bourdelles","Bourdelles"
33067,"BOURG",33710,"BOURG SUR GIRONDE",,"45.0398664572","-0.547187308975",67,,"Bourg","Bourg"
33068,"BOURIDEYS",33113,"BOURIDEYS",,"44.3577116761","-0.47241853929",68,,"Bourideys","Bourideys"
33069,"LE BOUSCAT",33110,"LE BOUSCAT",,"44.8661298323","-0.602121558626",69,"Le","Bouscat","Le Bouscat"
33070,"BRACH",33480,"BRACH",,"45.0409201338","-0.948184300809",70,,"Brach","Brach"
33071,"BRANNE",33420,"BRANNE",,"44.8281852222","-0.180276839156",71,,"Branne","Branne"
33072,"BRANNENS",33124,"BRANNENS",,"44.5220010151","-0.152201164676",72,,"Brannens","Brannens"
33073,"BRAUD ET ST LOUIS",33820,"BRAUD ET ST LOUIS",,"45.2544518508","-0.646204430347",73,,"Braud-et-Saint-Louis","Braud-et-Saint-Louis"
33074,"BROUQUEYRAN",33124,"BROUQUEYRAN",,"44.4879887371","-0.177790358519",74,,"Brouqueyran","Brouqueyran"
33075,"BRUGES",33520,"BRUGES",,"44.8889469436","-0.600427664273",75,,"Bruges","Bruges"
33076,"BUDOS",33720,"BUDOS",,"44.5346733151","-0.399965558931",76,,"Budos","Budos"
33077,"CABANAC ET VILLAGRAINS",33650,"CABANAC ET VILLAGRAINS",,"44.5919178983","-0.549470960581",77,,"Cabanac-et-Villagrains","Cabanac-et-Villagrains"
33078,"CABARA",33420,"CABARA",,"44.8304622766","-0.161179708223",78,,"Cabara","Cabara"
33079,"CADARSAC",33750,"CADARSAC",,"44.8620505289","-0.283663613137",79,,"Cadarsac","Cadarsac"
33080,"CADAUJAC",33140,"CADAUJAC",,"44.7463102353","-0.529387094363",80,,"Cadaujac","Cadaujac"
33081,"CADILLAC",33410,"CADILLAC",,"44.640655028","-0.305411766484",81,,"Cadillac","Cadillac"
33082,"CADILLAC EN FRONSADAIS",33240,"CADILLAC EN FRONSADAIS",,"44.9623132376","-0.373407122831",82,,"Cadillac-en-Fronsadais","Cadillac-en-Fronsadais"
33083,"CAMARSAC",33750,"CAMARSAC",,"44.8255815323","-0.368684633032",83,,"Camarsac","Camarsac"
33084,"CAMBES",33880,"CAMBES",,"44.7403794347","-0.462515708887",84,,"Cambes","Cambes"
33085,"CAMBLANES ET MEYNAC",33360,"CAMBLANES ET MEYNAC",,"44.7664526073","-0.475866480687",85,,"Camblanes-et-Meynac","Camblanes-et-Meynac"
33086,"CAMIAC ET ST DENIS",33420,"CAMIAC ET ST DENIS",,"44.7961983028","-0.292259095735",86,,"Camiac-et-Saint-Denis","Camiac-et-Saint-Denis"
33087,"CAMIRAN",33190,"CAMIRAN",,"44.6347802416","-0.0680146855411",87,,"Camiran","Camiran"
33088,"CAMPS SUR L ISLE",33660,"CAMPS SUR L ISLE",,"45.016429862","-0.0351593823599",88,,"Camps-sur-l'Isle","Camps-sur-l'Isle"
33089,"CAMPUGNAN",33390,"CAMPUGNAN",,"45.1842358526","-0.560005135989",89,,"Campugnan","Campugnan"
33090,"CANEJAN",33610,"CANEJAN",,"44.7598891584","-0.65697711026",90,,"Canéjan","Canéjan"
33091,"CANTENAC",33460,"CANTENAC",,"45.0277700491","-0.674408400113",91,,"Cantenac","Cantenac"
33092,"CANTOIS",33760,"CANTOIS",,"44.6929745463","-0.21477102235",92,,"Cantois","Cantois"
33093,"CAPIAN",33550,"CAPIAN",,"44.716585777","-0.327839975905",93,,"Capian","Capian"
33094,"CAPLONG",33220,"CAPLONG",,"44.7672577691","0.150751886414",94,,"Caplong","Caplong"
33095,"CAPTIEUX",33840,"CAPTIEUX",,"44.2537330711","-0.28409017243",95,,"Captieux","Captieux"
33096,"CARBON BLANC",33560,"CARBON BLANC",,"44.9025299083","-0.501176652356",96,,"Carbon-Blanc","Carbon-Blanc"
33097,"CARCANS",33121,"CARCANS",,"45.0847969006","-1.04933512467",97,,"Carcans","Carcans"
33097,"CARCANS",33121,"CARCANS","CARCANS PLAGE","45.0847969006","-1.04933512467",97,,"Carcans","Carcans"
33098,"CARDAN",33410,"CARDAN",,"44.682146358","-0.321636613083",98,,"Cardan","Cardan"
33099,"CARIGNAN DE BORDEAUX",33360,"CARIGNAN DE BORDEAUX",,"44.8094507679","-0.472244925995",99,,"Carignan-de-Bordeaux","Carignan-de-Bordeaux"
33100,"CARS",33390,"CARS",,"45.1284908523","-0.616952904879",100,,"Cars","Cars"
33101,"CARTELEGUE",33390,"CARTELEGUE",,"45.1912964207","-0.578370670079",101,,"Cartelègue","Cartelègue"
33102,"CASSEUIL",33190,"CASSEUIL",,"44.589045515","-0.118981195869",102,,"Casseuil","Casseuil"
33103,"CASTELMORON D ALBRET",33540,"CASTELMORON D ALBRET",,"44.6794782931","-0.0114847499916",103,,"Castelmoron-d'Albret","Castelmoron-d'Albret"
33104,"CASTELNAU DE MEDOC",33480,"CASTELNAU DE MEDOC",,"45.0074633162","-0.812848440368",104,,"Castelnau-de-Médoc","Castelnau-de-Médoc"
33105,"CASTELVIEL",33540,"CASTELVIEL",,"44.6665619029","-0.152086542362",105,,"Castelviel","Castelviel"
33106,"CASTETS EN DORTHE",33210,"CASTETS EN DORTHE",,"44.5558858175","-0.141301295122",106,,"Castets et Castillon","Castets et Castillon"
33107,"CASTILLON DE CASTETS",33210,"CASTILLON DE CASTETS",,"44.549611037","-0.109905368493",107,,"Castillon-de-Castets","Castillon-de-Castets"
33108,"CASTILLON LA BATAILLE",33350,"CASTILLON LA BATAILLE",,"44.8619054717","-0.0287795124609",108,,"Castillon-la-Bataille","Castillon-la-Bataille"
33109,"CASTRES GIRONDE",33640,"CASTRES GIRONDE",,"44.6858784947","-0.455026609065",109,,"Castres-Gironde","Castres-Gironde"
33111,"CAUDROT",33490,"CAUDROT",,"44.5846738826","-0.144878442229",111,,"Caudrot","Caudrot"
33112,"CAUMONT",33540,"CAUMONT",,"44.6957842338","-0.0109965772154",112,,"Caumont","Caumont"
33113,"CAUVIGNAC",33690,"CAUVIGNAC",,"44.4173147327","-0.0710548756183",113,,"Cauvignac","Cauvignac"
33114,"CAVIGNAC",33620,"CAVIGNAC",,"45.096401427","-0.381910358061",114,,"Cavignac","Cavignac"
33115,"CAZALIS",33113,"CAZALIS",,"44.3299796654","-0.393816052925",115,,"Cazalis","Cazalis"
33116,"CAZATS",33430,"CAZATS",,"44.473019034","-0.203200932598",116,,"Cazats","Cazats"
33117,"CAZAUGITAT",33790,"CAZAUGITAT",,"44.7152295174","0.0111309122135",117,,"Cazaugitat","Cazaugitat"
33118,"CENAC",33360,"CENAC",,"44.7826946723","-0.456684447802",118,,"Cénac","Cénac"
33119,"CENON",33150,"CENON",,"44.8548325665","-0.521018807062",119,,"Cenon","Cenon"
33120,"CERONS",33720,"CERONS",,"44.6273573941","-0.33978567872",120,,"Cérons","Cérons"
33121,"CESSAC",33760,"CESSAC",,"44.7415385665","-0.18530011295",121,,"Cessac","Cessac"
33122,"CESTAS",33610,"CESTAS",,"44.7237410966","-0.726825410115",122,,"Cestas","Cestas"
33122,"CESTAS",33610,"CESTAS","GAZINET","44.7237410966","-0.726825410115",122,,"Cestas","Cestas"
33123,"CEZAC",33620,"CEZAC",,"45.0855145427","-0.431075960608",123,,"Cézac","Cézac"
33124,"CHAMADELLE",33230,"CHAMADELLE",,"45.0983652507","-0.0904776374453",124,,"Chamadelle","Chamadelle"
33125,"CISSAC MEDOC",33250,"CISSAC MEDOC",,"45.220435054","-0.848792413525",125,,"Cissac-Médoc","Cissac-Médoc"
33126,"CIVRAC DE BLAYE",33920,"CIVRAC DE BLAYE",,"45.1112083478","-0.461315031465",126,,"Civrac-de-Blaye","Civrac-de-Blaye"
33127,"CIVRAC SUR DORDOGNE",33350,"CIVRAC SUR DORDOGNE",,"44.830355683","-0.0779777729752",127,,"Civrac-sur-Dordogne","Civrac-sur-Dordogne"
33128,"CIVRAC EN MEDOC",33340,"CIVRAC EN MEDOC",,"45.3437734218","-0.916116550254",128,,"Civrac-en-Médoc","Civrac-en-Médoc"
33129,"CLEYRAC",33540,"CLEYRAC",,"44.7187705333","-0.0383372674584",129,,"Cleyrac","Cleyrac"
33130,"COIMERES",33210,"COIMERES",,"44.5004950775","-0.212633821506",130,,"Coimères","Coimères"
33131,"COIRAC",33540,"COIRAC",,"44.6861124973","-0.172140647906",131,,"Coirac","Coirac"
33132,"COMPS",33710,"COMPS",,"45.0671200196","-0.593624837355",132,,"Comps","Comps"
33133,"COUBEYRAC",33890,"COUBEYRAC",,"44.7835191619","0.0530247676718",133,,"Coubeyrac","Coubeyrac"
33134,"COUQUEQUES",33340,"COUQUEQUES",,"45.3438294429","-0.847957119677",134,,"Couquèques","Couquèques"
33135,"COURPIAC",33760,"COURPIAC",,"44.7547642391","-0.185776017902",135,,"Courpiac","Courpiac"
33136,"COURS DE MONSEGUR",33580,"COURS DE MONSEGUR",,"44.6517777176","0.127326594393",136,,"Cours-de-Monségur","Cours-de-Monségur"
33137,"COURS LES BAINS",33690,"COURS LES BAINS",,"44.3789499034","-0.00703420614383",137,,"Cours-les-Bains","Cours-les-Bains"
33138,"COUTRAS",33230,"COUTRAS",,"45.0390867207","-0.105373715279",138,,"Coutras","Coutras"
33139,"COUTURES",33580,"COUTURES",,"44.652450698","0.0315149165133",139,,"Coutures","Coutures"
33140,"CREON",33670,"CREON",,"44.770425384","-0.343606134456",140,,"Créon","Créon"
33141,"CROIGNON",33750,"CROIGNON",,"44.8210599121","-0.344003297739",141,,"Croignon","Croignon"
33142,"CUBNEZAIS",33620,"CUBNEZAIS",,"45.0728274718","-0.419591338026",142,,"Cubnezais","Cubnezais"
33143,"CUBZAC LES PONTS",33240,"CUBZAC LES PONTS",,"44.9696352985","-0.446132776747",143,,"Cubzac-les-Ponts","Cubzac-les-Ponts"
33144,"CUDOS",33430,"CUDOS",,"44.3779081527","-0.188470066299",144,,"Cudos","Cudos"
33145,"CURSAN",33670,"CURSAN",,"44.7957089304","-0.33460674853",145,,"Cursan","Cursan"
33146,"CUSSAC FORT MEDOC",33460,"CUSSAC FORT MEDOC",,"45.1199548347","-0.72618379335",146,,"Cussac-Fort-Médoc","Cussac-Fort-Médoc"
33147,"DAIGNAC",33420,"DAIGNAC",,"44.7959422928","-0.235707900811",147,,"Daignac","Daignac"
33148,"DARDENAC",33420,"DARDENAC",,"44.7835125524","-0.239650507452",148,,"Dardenac","Dardenac"
33149,"DAUBEZE",33540,"DAUBEZE",,"44.7103814414","-0.133821716061",149,,"Daubèze","Daubèze"
33150,"DIEULIVOL",33580,"DIEULIVOL",,"44.6779870781","0.103507198819",150,,"Dieulivol","Dieulivol"
33151,"DONNEZAC",33860,"DONNEZAC",,"45.2339831114","-0.445024799507",151,,"Donnezac","Donnezac"
33152,"DONZAC",33410,"DONZAC",,"44.6490849258","-0.256631952912",152,,"Donzac","Donzac"
33153,"DOULEZON",33350,"DOULEZON",,"44.7924343715","-0.00123843132534",153,,"Doulezon","Doulezon"
33154,"LES EGLISOTTES ET CHALAURES",33230,"LES EGLISOTTES ET CHALAURES",,"45.0928940224","-0.0328830508669",154,"Les","Églisottes-et-Chalaures","Les Églisottes-et-Chalaures"
33155,"ESCAUDES",33840,"ESCAUDES",,"44.3127064082","-0.208247896337",155,,"Escaudes","Escaudes"
33156,"ESCOUSSANS",33760,"ESCOUSSANS",,"44.6790444082","-0.275955218304",156,,"Escoussans","Escoussans"
33157,"ESPIET",33420,"ESPIET",,"44.7957699657","-0.26502782545",157,,"Espiet","Espiet"
33158,"LES ESSEINTES",33190,"LES ESSEINTES",,"44.6095361075","-0.0653601250201",158,"Les","Esseintes","Les Esseintes"
33159,"ETAULIERS",33820,"ETAULIERS",,"45.2209962068","-0.581677744347",159,,"Étauliers","Étauliers"
33160,"EYNESSE",33220,"EYNESSE",,"44.819717778","0.14910058165",160,,"Eynesse","Eynesse"
33161,"EYRANS",33390,"EYRANS",,"45.1935625916","-0.60988049368",161,,"Eyrans","Eyrans"
33162,"EYSINES",33320,"EYSINES",,"44.8797152377","-0.647899474657",162,,"Eysines","Eysines"
33163,"FALEYRAS",33760,"FALEYRAS",,"44.7638937093","-0.228692967915",163,,"Faleyras","Faleyras"
33164,"FARGUES",33210,"FARGUES",,"44.5353844514","-0.294974824238",164,,"Fargues","Fargues"
33165,"FARGUES ST HILAIRE",33370,"FARGUES ST HILAIRE",,"44.819815277","-0.439992385579",165,,"Fargues-Saint-Hilaire","Fargues-Saint-Hilaire"
33166,"LE FIEU",33230,"LE FIEU",,"45.0551327657","-0.0359458641255",166,"Le","Fieu","Le Fieu"
33167,"FLOIRAC",33270,"FLOIRAC",,"44.8338094646","-0.520646895866",167,,"Floirac","Floirac"
33168,"FLAUJAGUES",33350,"FLAUJAGUES",,"44.8318741437","0.0243569080199",168,,"Flaujagues","Flaujagues"
33169,"FLOUDES",33190,"FLOUDES",,"44.5700178825","-0.0629604195492",169,,"Floudès","Floudès"
33170,"FONTET",33190,"FONTET",,"44.5553150751","-0.0279073992518",170,,"Fontet","Fontet"
33171,"FOSSES ET BALEYSSAC",33190,"FOSSES ET BALEYSSAC",,"44.5970944275","0.0500249563956",171,,"Fossès-et-Baleyssac","Fossès-et-Baleyssac"
33172,"FOURS",33390,"FOURS",,"45.1747751409","-0.633340019213",172,,"Fours","Fours"
33173,"FRANCS",33570,"FRANCS",,"44.942978361","-0.00064276030543",173,,"Francs","Francs"
33174,"FRONSAC",33126,"FRONSAC",,"44.9220632004","-0.279859692474",174,,"Fronsac","Fronsac"
33175,"FRONTENAC",33760,"FRONTENAC",,"44.7297633138","-0.144178489946",175,,"Frontenac","Frontenac"
33176,"GABARNAC",33410,"GABARNAC",,"44.6165155968","-0.262725759039",176,,"Gabarnac","Gabarnac"
33177,"GAILLAN EN MEDOC",33340,"GAILLAN EN MEDOC",,"45.3129626409","-0.987597387066",177,,"Gaillan-en-Médoc","Gaillan-en-Médoc"
33178,"GAJAC",33430,"GAJAC",,"44.4363899327","-0.134945962959",178,,"Gajac","Gajac"
33179,"GALGON",33133,"GALGON",,"44.9904736061","-0.276833438691",179,,"Galgon","Galgon"
33180,"GANS",33430,"GANS",,"44.4543319425","-0.132059806791",180,,"Gans","Gans"
33181,"GARDEGAN ET TOURTIRAC",33350,"GARDEGAN ET TOURTIRAC",,"44.8947155186","-0.0166227907125",181,,"Gardegan-et-Tourtirac","Gardegan-et-Tourtirac"
33182,"GAURIAC",33710,"GAURIAC",,"45.0640707236","-0.629412029875",182,,"Gauriac","Gauriac"
33183,"GAURIAGUET",33240,"GAURIAGUET",,"45.0457476873","-0.395962651945",183,,"Gauriaguet","Gauriaguet"
33184,"GENERAC",33920,"GENERAC",,"45.1736695574","-0.545835107473",184,,"Générac","Générac"
33185,"GENISSAC",33420,"GENISSAC",,"44.8604999548","-0.249176861403",185,,"Génissac","Génissac"
33186,"GENSAC",33890,"GENSAC",,"44.7947598908","0.0843381724535",186,,"Gensac","Gensac"
33187,"GIRONDE SUR DROPT",33190,"GIRONDE SUR DROPT",,"44.5911619768","-0.0876331035649",187,,"Gironde-sur-Dropt","Gironde-sur-Dropt"
33188,"GISCOS",33840,"GISCOS",,"44.2661947283","-0.163156901321",188,,"Giscos","Giscos"
33189,"GORNAC",33540,"GORNAC",,"44.6632972482","-0.1839383774",189,,"Gornac","Gornac"
33190,"GOUALADE",33840,"GOUALADE",,"44.3174301368","-0.121216305853",190,,"Goualade","Goualade"
33191,"GOURS",33660,"GOURS",,"44.9980305708","0.0262519757386",191,,"Gours","Gours"
33192,"GRADIGNAN",33170,"GRADIGNAN",,"44.7709411201","-0.616137682116",192,,"Gradignan","Gradignan"
33193,"GRAYAN ET L HOPITAL",33590,"GRAYAN ET L HOPITAL",,"45.4351862635","-1.10881933696",193,,"Grayan-et-l'Hôpital","Grayan-et-l'Hôpital"
33194,"GREZILLAC",33420,"GREZILLAC",,"44.8168819983","-0.218779219407",194,,"Grézillac","Grézillac"
33195,"GRIGNOLS",33690,"GRIGNOLS",,"44.4096678184","-0.0256453531001",195,,"Grignols","Grignols"
33196,"GUILLAC",33420,"GUILLAC",,"44.8035781649","-0.2106680867",196,,"Guillac","Guillac"
33197,"GUILLOS",33720,"GUILLOS",,"44.5519470973","-0.518935394792",197,,"Guillos","Guillos"
33198,"GUITRES",33230,"GUITRES",,"45.0431099421","-0.186650688542",198,,"Guîtres","Guîtres"
33199,"GUJAN MESTRAS",33470,"GUJAN MESTRAS",,"44.5940361232","-1.08427455858",199,,"Gujan-Mestras","Gujan-Mestras"
33200,"LE HAILLAN",33185,"LE HAILLAN",,"44.8690837903","-0.684443512134",200,"Le","Haillan","Le Haillan"
33201,"HAUX",33550,"HAUX",,"44.7364762745","-0.365775340015",201,,"Haux","Haux"
33202,"HOSTENS",33125,"HOSTENS",,"44.4849173448","-0.656859781081",202,,"Hostens","Hostens"
33203,"HOURTIN",33990,"HOURTIN",,"45.1807913533","-1.06580080764",203,,"Hourtin","Hourtin"
33204,"HURE",33190,"HURE",,"44.537084406","-0.00499948026511",204,,"Hure","Hure"
33205,"ILLATS",33720,"ILLATS",,"44.6070822576","-0.380440319465",205,,"Illats","Illats"
33206,"ISLE ST GEORGES",33640,"ISLE ST GEORGES",,"44.726604598","-0.473681984875",206,,"Isle-Saint-Georges","Isle-Saint-Georges"
33207,"IZON",33450,"IZON",,"44.922024323","-0.355652161244",207,,"Izon","Izon"
33208,"JAU DIGNAC ET LOIRAC",33590,"JAU DIGNAC ET LOIRAC",,"45.4149833388","-0.96259528402",208,,"Jau-Dignac-et-Loirac","Jau-Dignac-et-Loirac"
33209,"JUGAZAN",33420,"JUGAZAN",,"44.7787058839","-0.149444168001",209,,"Jugazan","Jugazan"
33210,"JUILLAC",33890,"JUILLAC",,"44.8137050234","0.0536333384557",210,,"Juillac","Juillac"
33211,"LABARDE",33460,"LABARDE",,"45.0143357782","-0.64053807167",211,,"Labarde","Labarde"
33212,"LABESCAU",33690,"LABESCAU",,"44.4484673998","-0.0833418361423",212,,"Labescau","Labescau"
33213,"LA BREDE",33650,"LA BREDE",,"44.6801130358","-0.53691849986",213,"La","Brède","La Brède"
33214,"LACANAU",33680,"LACANAU",,"44.983404414","-1.10810794832",214,,"Lacanau","Lacanau"
33214,"LACANAU",33680,"LACANAU","LACANAU OCEAN","44.983404414","-1.10810794832",214,,"Lacanau","Lacanau"
33215,"LADAUX",33760,"LADAUX",,"44.7032423261","-0.246749239195",215,,"Ladaux","Ladaux"
33216,"LADOS",33124,"LADOS",,"44.4687250597","-0.135994584664",216,,"Lados","Lados"
33218,"LAGORCE",33230,"LAGORCE",,"45.0781941491","-0.160779804845",218,,"Lagorce","Lagorce"
33219,"LA LANDE DE FRONSAC",33240,"LA LANDE DE FRONSAC",,"44.9839394849","-0.380437424573",219,"La","Lande-de-Fronsac","La Lande-de-Fronsac"
33220,"LAMARQUE",33460,"LAMARQUE",,"45.0938248209","-0.711211655735",220,,"Lamarque","Lamarque"
33221,"LAMOTHE LANDERRON",33190,"LAMOTHE LANDERRON",,"44.5644466731","0.0611018511899",221,,"Lamothe-Landerron","Lamothe-Landerron"
33222,"LALANDE DE POMEROL",33500,"LALANDE DE POMEROL",,"44.9568056428","-0.206253133932",222,,"Lalande-de-Pomerol","Lalande-de-Pomerol"
33223,"LANDERROUAT",33790,"LANDERROUAT",,"44.7425058294","0.160918010334",223,,"Landerrouat","Landerrouat"
33224,"LANDERROUET SUR SEGUR",33540,"LANDERROUET SUR SEGUR",,"44.6535808373","-0.0206044198936",224,,"Landerrouet-sur-Ségur","Landerrouet-sur-Ségur"
33225,"LANDIRAS",33720,"LANDIRAS",,"44.5665616702","-0.442802950502",225,,"Landiras","Landiras"
33226,"LANGOIRAN",33550,"LANGOIRAN",,"44.7077300213","-0.374262816088",226,,"Langoiran","Langoiran"
33227,"LANGON",33210,"LANGON",,"44.5376287285","-0.241841251091",227,,"Langon","Langon"
33228,"LANSAC",33710,"LANSAC",,"45.064093095","-0.534857408079",228,,"Lansac","Lansac"
33229,"LANTON",33138,"LANTON",,"44.7744744246","-0.976985580148",229,,"Lanton","Lanton"
33229,"LANTON",33138,"LANTON","TAUSSAT","44.7744744246","-0.976985580148",229,,"Lanton","Lanton"
33230,"LAPOUYADE",33620,"LAPOUYADE",,"45.1108151595","-0.286501093262",230,,"Lapouyade","Lapouyade"
33231,"LAROQUE",33410,"LAROQUE",,"44.6603681588","-0.305926644431",231,,"Laroque","Laroque"
33232,"LARTIGUE",33840,"LARTIGUE",,"44.252892627","-0.0912924578468",232,,"Lartigue","Lartigue"
33233,"LARUSCADE",33620,"LARUSCADE",,"45.1237982623","-0.344529143591",233,,"Laruscade","Laruscade"
33234,"LATRESNE",33360,"LATRESNE",,"44.7900155493","-0.500800441782",234,,"Latresne","Latresne"
33235,"LAVAZAN",33690,"LAVAZAN",,"44.3913358368","-0.115846952236",235,,"Lavazan","Lavazan"
33236,"LEGE CAP FERRET",33950,"LEGE CAP FERRET",,"44.7609440223","-1.19293697437",236,,"Lège-Cap-Ferret","Lège-Cap-Ferret"
33236,"LEGE CAP FERRET",33950,"LEGE CAP FERRET","LE CANON","44.7609440223","-1.19293697437",236,,"Lège-Cap-Ferret","Lège-Cap-Ferret"
33236,"LEGE CAP FERRET",33970,"LEGE CAP FERRET",,"44.7609440223","-1.19293697437",236,,"Lège-Cap-Ferret","Lège-Cap-Ferret"
33236,"LEGE CAP FERRET",33970,"LEGE CAP FERRET","CAP FERRET","44.7609440223","-1.19293697437",236,,"Lège-Cap-Ferret","Lège-Cap-Ferret"
33237,"LEOGEATS",33210,"LEOGEATS",,"44.5068605106","-0.356393129904",237,,"Léogeats","Léogeats"
33238,"LEOGNAN",33850,"LEOGNAN",,"44.7191460436","-0.614707683753",238,,"Léognan","Léognan"
33239,"LERM ET MUSSET",33840,"LERM ET MUSSET",,"44.340461313","-0.151525582762",239,,"Lerm-et-Musset","Lerm-et-Musset"
33240,"LESPARRE MEDOC",33340,"LESPARRE MEDOC",,"45.2821023678","-0.935162142648",240,,"Lesparre-Médoc","Lesparre-Médoc"
33241,"LESTIAC SUR GARONNE",33550,"LESTIAC SUR GARONNE",,"44.6919250823","-0.37953441784",241,,"Lestiac-sur-Garonne","Lestiac-sur-Garonne"
33242,"LES LEVES ET THOUMEYRAGUES",33220,"LES LEVES ET THOUMEYRAGUES",,"44.7828737867","0.185216218657",242,"Les","Lèves-et-Thoumeyragues","Les Lèves-et-Thoumeyragues"
33243,"LIBOURNE",33500,"LIBOURNE",,"44.9130767869","-0.234709332068",243,,"Libourne","Libourne"
33244,"LIGNAN DE BAZAS",33430,"LIGNAN DE BAZAS",,"44.432658053","-0.276912828373",244,,"Lignan-de-Bazas","Lignan-de-Bazas"
33245,"LIGNAN DE BORDEAUX",33360,"LIGNAN DE BORDEAUX",,"44.7951113982","-0.429417377257",245,,"Lignan-de-Bordeaux","Lignan-de-Bordeaux"
33246,"LIGUEUX",33220,"LIGUEUX",,"44.7917917064","0.262913013471",246,,"Ligueux","Ligueux"
33247,"LISTRAC DE DUREZE",33790,"LISTRAC DE DUREZE",,"44.7607755904","0.0336581808427",247,,"Listrac-de-Durèze","Listrac-de-Durèze"
33248,"LISTRAC MEDOC",33480,"LISTRAC MEDOC",,"45.0683170003","-0.829346314707",248,,"Listrac-Médoc","Listrac-Médoc"
33249,"LORMONT",33310,"LORMONT",,"44.8765972567","-0.519774925453",249,,"Lormont","Lormont"
33250,"LOUBENS",33190,"LOUBENS",,"44.626465162","-0.0228626595268",250,,"Loubens","Loubens"
33251,"LOUCHATS",33125,"LOUCHATS",,"44.51328218","-0.57113615369",251,,"Louchats","Louchats"
33252,"LOUPES",33370,"LOUPES",,"44.810050839","-0.390948542123",252,,"Loupes","Loupes"
33253,"LOUPIAC",33410,"LOUPIAC",,"44.6282363269","-0.287216072924",253,,"Loupiac","Loupiac"
33254,"LOUPIAC DE LA REOLE",33190,"LOUPIAC DE LA REOLE",,"44.5412367139","-0.0440895943133",254,,"Loupiac-de-la-Réole","Loupiac-de-la-Réole"
33255,"LUCMAU",33840,"LUCMAU",,"44.2944038567","-0.34085237286",255,,"Lucmau","Lucmau"
33256,"LUDON MEDOC",33290,"LUDON MEDOC",,"44.9803239234","-0.590569121795",256,,"Ludon-Médoc","Ludon-Médoc"
33257,"LUGAIGNAC",33420,"LUGAIGNAC",,"44.8132322615","-0.193535633137",257,,"Lugaignac","Lugaignac"
33258,"LUGASSON",33760,"LUGASSON",,"44.7559772921","-0.155290604568",258,,"Lugasson","Lugasson"
33259,"LUGON ET L ILE DU CARNAY",33240,"LUGON ET L ILE DU CARNAY",,"44.9523815308","-0.354697747394",259,,"Lugon-et-l'Île-du-Carnay","Lugon-et-l'Île-du-Carnay"
33260,"LUGOS",33830,"LUGOS",,"44.4689386134","-0.915096258031",260,,"Lugos","Lugos"
33261,"LUSSAC",33570,"LUSSAC",,"44.9666973699","-0.0939830004604",261,,"Lussac","Lussac"
33262,"MACAU",33460,"MACAU",,"45.004972156","-0.612661871132",262,,"Macau","Macau"
33263,"MADIRAC",33670,"MADIRAC",,"44.7577269067","-0.397181377193",263,,"Madirac","Madirac"
33264,"MARANSIN",33230,"MARANSIN",,"45.073022085","-0.253636034832",264,,"Maransin","Maransin"
33266,"MARCENAIS",33620,"MARCENAIS",,"45.0595596341","-0.344873421107",266,,"Marcenais","Marcenais"
33267,"MARCILLAC",33860,"MARCILLAC",,"45.2741080516","-0.498919623056",267,,"Marcillac","Marcillac"
33268,"MARGAUX",33460,"MARGAUX",,"45.0468275892","-0.671911642441",268,,"Margaux-Cantenac","Margaux-Cantenac"
33269,"MARGUERON",33220,"MARGUERON",,"44.7662541658","0.255840872998",269,,"Margueron","Margueron"
33270,"MARIMBAULT",33430,"MARIMBAULT",,"44.4100701595","-0.258019615716",270,,"Marimbault","Marimbault"
33271,"MARIONS",33690,"MARIONS",,"44.3739498817","-0.0894365463696",271,,"Marions","Marions"
33272,"MARSAS",33620,"MARSAS",,"45.0629627303","-0.376243370882",272,,"Marsas","Marsas"
33273,"MARTIGNAS SUR JALLE",33127,"MARTIGNAS SUR JALLE",,"44.8450267218","-0.795499117928",273,,"Martignas-sur-Jalle","Martignas-sur-Jalle"
33274,"MARTILLAC",33650,"MARTILLAC",,"44.7153672874","-0.556994506438",274,,"Martillac","Martillac"
33275,"MARTRES",33760,"MARTRES",,"44.7073917593","-0.168195738605",275,,"Martres","Martres"
33276,"MASSEILLES",33690,"MASSEILLES",,"44.4025946002","-0.0592641456363",276,,"Masseilles","Masseilles"
33277,"MASSUGAS",33790,"MASSUGAS",,"44.7697025762","0.101172936078",277,,"Massugas","Massugas"
33278,"MAURIAC",33540,"MAURIAC",,"44.7460542854","-0.024421737317",278,,"Mauriac","Mauriac"
33279,"MAZERES",33210,"MAZERES",,"44.503806188","-0.250077983098",279,,"Mazères","Mazères"
33280,"MAZION",33390,"MAZION",,"45.1693324994","-0.605631141444",280,,"Mazion","Mazion"
33281,"MERIGNAC",33700,"MERIGNAC",,"44.8322953289","-0.681733084891",281,,"Mérignac","Mérignac"
33282,"MERIGNAS",33350,"MERIGNAS",,"44.785315227","-0.0842235112543",282,,"Mérignas","Mérignas"
33283,"MESTERRIEUX",33540,"MESTERRIEUX",,"44.6440577159","-0.0111745984691",283,,"Mesterrieux","Mesterrieux"
33284,"MIOS",33380,"MIOS",,"44.6179149385","-0.895043516013",284,,"Mios","Mios"
33284,"MIOS",33380,"MIOS","CAUDOS","44.6179149385","-0.895043516013",284,,"Mios","Mios"
33285,"MOMBRIER",33710,"MOMBRIER",,"45.0776862842","-0.546789839877",285,,"Mombrier","Mombrier"
33287,"MONGAUZY",33190,"MONGAUZY",,"44.5716886086","0.0260082761358",287,,"Mongauzy","Mongauzy"
33288,"MONPRIMBLANC",33410,"MONPRIMBLANC",,"44.6308462675","-0.255341056142",288,,"Monprimblanc","Monprimblanc"
33289,"MONSEGUR",33580,"MONSEGUR",,"44.6462089079","0.0892904208174",289,,"Monségur","Monségur"
33290,"MONTAGNE",33570,"MONTAGNE",,"44.9320818849","-0.126958398554",290,,"Montagne","Montagne"
33290,"MONTAGNE",33570,"MONTAGNE","PARSAC","44.9320818849","-0.126958398554",290,,"Montagne","Montagne"
33290,"MONTAGNE",33570,"MONTAGNE","ST GEORGES","44.9320818849","-0.126958398554",290,,"Montagne","Montagne"
33291,"MONTAGOUDIN",33190,"MONTAGOUDIN",,"44.5808235972","0.0052094648538",291,,"Montagoudin","Montagoudin"
33292,"MONTIGNAC",33760,"MONTIGNAC",,"44.7130267691","-0.217710701052",292,,"Montignac","Montignac"
33293,"MONTUSSAN",33450,"MONTUSSAN",,"44.8830118626","-0.429149844535",293,,"Montussan","Montussan"
33294,"MORIZES",33190,"MORIZES",,"44.6140049596","-0.0976758090404",294,,"Morizès","Morizès"
33295,"MOUILLAC",33240,"MOUILLAC",,"45.0062622298","-0.348490908625",295,,"Mouillac","Mouillac"
33296,"MOULIETS ET VILLEMARTIN",33350,"MOULIETS ET VILLEMARTIN",,"44.8332902441","-0.0217836463631",296,,"Mouliets-et-Villemartin","Mouliets-et-Villemartin"
33297,"MOULIS EN MEDOC",33480,"MOULIS EN MEDOC",,"45.0531974317","-0.784543632595",297,,"Moulis-en-Médoc","Moulis-en-Médoc"
33298,"MOULON",33420,"MOULON",,"44.8575503157","-0.220590516596",298,,"Moulon","Moulon"
33299,"MOURENS",33410,"MOURENS",,"44.645047308","-0.211538957224",299,,"Mourens","Mourens"
33300,"NAUJAC SUR MER",33990,"NAUJAC SUR MER",,"45.2610002038","-1.05592808876",300,,"Naujac-sur-Mer","Naujac-sur-Mer"
33301,"NAUJAN ET POSTIAC",33420,"NAUJAN ET POSTIAC",,"44.7877867597","-0.184238478251",301,,"Naujan-et-Postiac","Naujan-et-Postiac"
33302,"NEAC",33500,"NEAC",,"44.9434879811","-0.177921280134",302,,"Néac","Néac"
33303,"NERIGEAN",33750,"NERIGEAN",,"44.843131883","-0.284955496145",303,,"Nérigean","Nérigean"
33304,"NEUFFONS",33580,"NEUFFONS",,"44.6479485924","0.0115623600622",304,,"Neuffons","Neuffons"
33305,"LE NIZAN",33430,"LE NIZAN",,"44.4702093406","-0.280941561777",305,"Le","Nizan","Le Nizan"
33306,"NOAILLAC",33190,"NOAILLAC",,"44.517026239","-0.0232977040899",306,,"Noaillac","Noaillac"
33307,"NOAILLAN",33730,"NOAILLAN",,"44.4800097936","-0.360121243141",307,,"Noaillan","Noaillan"
33308,"OMET",33410,"OMET",,"44.6554817395","-0.286590923535",308,,"Omet","Omet"
33309,"ORDONNAC",33340,"ORDONNAC",,"45.3073708232","-0.843285688562",309,,"Ordonnac","Ordonnac"
33310,"ORIGNE",33113,"ORIGNE",,"44.5038761051","-0.509904943904",310,,"Origne","Origne"
33311,"PAILLET",33550,"PAILLET",,"44.6854994592","-0.361810561695",311,,"Paillet","Paillet"
33312,"PAREMPUYRE",33290,"PAREMPUYRE",,"44.9541509661","-0.580766578801",312,,"Parempuyre","Parempuyre"
33314,"PAUILLAC",33250,"PAUILLAC",,"45.1990068041","-0.758200153521",314,,"Pauillac","Pauillac"
33315,"LES PEINTURES",33230,"LES PEINTURES",,"45.0651284509","-0.0878121434236",315,"Les","Peintures","Les Peintures"
33316,"PELLEGRUE",33790,"PELLEGRUE",,"44.7382200976","0.0952560866567",316,,"Pellegrue","Pellegrue"
33317,"PERISSAC",33240,"PERISSAC",,"45.0242960787","-0.316735068823",317,,"Périssac","Périssac"
33318,"PESSAC",33600,"PESSAC",,"44.7915990521","-0.676303166277",318,,"Pessac","Pessac"
33319,"PESSAC SUR DORDOGNE",33890,"PESSAC SUR DORDOGNE",,"44.8179368546","0.0937252585904",319,,"Pessac-sur-Dordogne","Pessac-sur-Dordogne"
33320,"PETIT PALAIS ET CORNEMPS",33570,"PETIT PALAIS ET CORNEMPS",,"44.9814131472","-0.0564567492299",320,,"Petit-Palais-et-Cornemps","Petit-Palais-et-Cornemps"
33321,"PEUJARD",33240,"PEUJARD",,"45.0484108625","-0.431387189025",321,,"Peujard","Peujard"
33322,"LE PIAN MEDOC",33290,"LE PIAN MEDOC",,"44.9562692622","-0.670672181899",322,"Le","Pian-Médoc","Le Pian-Médoc"
33323,"LE PIAN SUR GARONNE",33490,"LE PIAN SUR GARONNE",,"44.5821324623","-0.216934173908",323,"Le","Pian-sur-Garonne","Le Pian-sur-Garonne"
33324,"PINEUILH",33220,"PINEUILH",,"44.8236972399","0.233443926253",324,,"Pineuilh","Pineuilh"
33325,"PLASSAC",33390,"PLASSAC",,"45.097903949","-0.651002369546",325,,"Plassac","Plassac"
33326,"PLEINE SELVE",33820,"PLEINE SELVE",,"45.3271088387","-0.582258150086",326,,"Pleine-Selve","Pleine-Selve"
33327,"PODENSAC",33720,"PODENSAC",,"44.6459179766","-0.358722392268",327,,"Podensac","Podensac"
33328,"POMEROL",33500,"POMEROL",,"44.9313091859","-0.204692390776",328,,"Pomerol","Pomerol"
33329,"POMPEJAC",33730,"POMPEJAC",,"44.3995823965","-0.298890658986",329,,"Pompéjac","Pompéjac"
33330,"POMPIGNAC",33370,"POMPIGNAC",,"44.8541963522","-0.431857978579",330,,"Pompignac","Pompignac"
33331,"PONDAURAT",33190,"PONDAURAT",,"44.5317947567","-0.0798688844488",331,,"Pondaurat","Pondaurat"
33332,"PORCHERES",33660,"PORCHERES",,"45.0370123077","0.00132456186091",332,,"Porchères","Porchères"
33333,"LE PORGE",33680,"LE PORGE",,"44.867037132","-1.14092605911",333,"Le","Porge","Le Porge"
33334,"PORTETS",33640,"PORTETS",,"44.6812515729","-0.426367189428",334,,"Portets","Portets"
33335,"LE POUT",33670,"LE POUT",,"44.8044080843","-0.357222869901",335,"Le","Pout","Le Pout"
33336,"PRECHAC",33730,"PRECHAC",,"44.3872999991","-0.36765609959",336,,"Préchac","Préchac"
33337,"PREIGNAC",33210,"PREIGNAC",,"44.5701114534","-0.309617244092",337,,"Preignac","Preignac"
33338,"PRIGNAC EN MEDOC",33340,"PRIGNAC EN MEDOC",,"45.3185304134","-0.906635025936",338,,"Prignac-en-Médoc","Prignac-en-Médoc"
33339,"PRIGNAC ET MARCAMPS",33710,"PRIGNAC ET MARCAMPS",,"45.0258741295","-0.495032335028",339,,"Prignac-et-Marcamps","Prignac-et-Marcamps"
33341,"PUGNAC",33710,"PUGNAC",,"45.0835194414","-0.498613967058",341,,"Pugnac","Pugnac"
33341,"PUGNAC",33710,"PUGNAC","LAFOSSE","45.0835194414","-0.498613967058",341,,"Pugnac","Pugnac"
33342,"PUISSEGUIN",33570,"PUISSEGUIN",,"44.9327886127","-0.0632513144683",342,,"Puisseguin","Puisseguin"
33342,"PUISSEGUIN",33570,"PUISSEGUIN","MONBADON","44.9327886127","-0.0632513144683",342,,"Puisseguin","Puisseguin"
33343,"PUJOLS SUR CIRON",33210,"PUJOLS SUR CIRON",,"44.5707365487","-0.353176378763",343,,"Pujols-sur-Ciron","Pujols-sur-Ciron"
33344,"PUJOLS",33350,"PUJOLS",,"44.806319089","-0.0328874933658",344,,"Pujols","Pujols"
33345,"LE PUY",33580,"LE PUY",,"44.6595382268","0.0603849385467",345,"Le","Puy","Le Puy"
33346,"PUYBARBAN",33190,"PUYBARBAN",,"44.5479161456","-0.069264224566",346,,"Puybarban","Puybarban"
33347,"PUYNORMAND",33660,"PUYNORMAND",,"44.9814938189","-0.00176034544232",347,,"Puynormand","Puynormand"
33348,"QUEYRAC",33340,"QUEYRAC",,"45.3608901239","-1.00082649674",348,,"Queyrac","Queyrac"
33349,"QUINSAC",33360,"QUINSAC",,"44.7509609178","-0.490697647694",349,,"Quinsac","Quinsac"
33350,"RAUZAN",33420,"RAUZAN",,"44.7824119957","-0.131058944697",350,,"Rauzan","Rauzan"
33351,"REIGNAC",33860,"REIGNAC",,"45.2294125934","-0.51659465108",351,,"Reignac","Reignac"
33352,"LA REOLE",33190,"LA REOLE",,"44.5860904495","-0.042370404021",352,"La","Réole","La Réole"
33353,"RIMONS",33580,"RIMONS",,"44.6744095264","0.0144612295759",353,,"Rimons","Rimons"
33354,"RIOCAUD",33220,"RIOCAUD",,"44.7507112352","0.203198024954",354,,"Riocaud","Riocaud"
33355,"RIONS",33410,"RIONS",,"44.6684320932","-0.336471805521",355,,"Rions","Rions"
33356,"LA RIVIERE",33126,"LA RIVIERE",,"44.9377237217","-0.316177006649",356,"La","Rivière","La Rivière"
33357,"ROAILLAN",33210,"ROAILLAN",,"44.5054989017","-0.285142833143",357,,"Roaillan","Roaillan"
33358,"ROMAGNE",33760,"ROMAGNE",,"44.7639270453","-0.204211440747",358,,"Romagne","Romagne"
33359,"ROQUEBRUNE",33580,"ROQUEBRUNE",,"44.6257630925","0.0206819226945",359,,"Roquebrune","Roquebrune"
33360,"LA ROQUILLE",33220,"LA ROQUILLE",,"44.7853020324","0.232048719283",360,"La","Roquille","La Roquille"
33361,"RUCH",33350,"RUCH",,"44.773827226","-0.0332957025403",361,,"Ruch","Ruch"
33362,"SABLONS",33910,"SABLONS",,"45.0243699436","-0.182863354079",362,,"Sablons","Sablons"
33363,"SADIRAC",33670,"SADIRAC",,"44.7827506267","-0.38947986904",363,,"Sadirac","Sadirac"
33364,"SAILLANS",33141,"SAILLANS",,"44.9570462832","-0.271169418164",364,,"Saillans","Saillans"
33365,"ST AIGNAN",33126,"ST AIGNAN",,"44.9475875341","-0.297024133452",365,,"Saint-Aignan","Saint-Aignan"
33366,"ST ANDRE DE CUBZAC",33240,"ST ANDRE DE CUBZAC",,"44.9954623723","-0.43596742679",366,,"Saint-André-de-Cubzac","Saint-André-de-Cubzac"
33367,"ST ANDRE DU BOIS",33490,"ST ANDRE DU BOIS",,"44.6072494865","-0.187082711636",367,,"Saint-André-du-Bois","Saint-André-du-Bois"
33369,"ST ANDRE ET APPELLES",33220,"ST ANDRE ET APPELLES",,"44.8105147656","0.199159623027",369,,"Saint-André-et-Appelles","Saint-André-et-Appelles"
33370,"ST ANDRONY",33390,"ST ANDRONY",,"45.2014736682","-0.686129899592",370,,"Saint-Androny","Saint-Androny"
33372,"ST ANTOINE DU QUEYRET",33790,"ST ANTOINE DU QUEYRET",,"44.7623588466","0.00922484290059",372,,"Saint-Antoine-du-Queyret","Saint-Antoine-du-Queyret"
33373,"ST ANTOINE SUR L ISLE",33660,"ST ANTOINE SUR L ISLE",,"45.0470360982","0.0461113956176",373,,"Saint-Antoine-sur-l'Isle","Saint-Antoine-sur-l'Isle"
33374,"ST AUBIN DE BLAYE",33820,"ST AUBIN DE BLAYE",,"45.2588194568","-0.572897144494",374,,"Saint-Aubin-de-Blaye","Saint-Aubin-de-Blaye"
33375,"ST AUBIN DE BRANNE",33420,"ST AUBIN DE BRANNE",,"44.8109316671","-0.168129040807",375,,"Saint-Aubin-de-Branne","Saint-Aubin-de-Branne"
33376,"ST AUBIN DE MEDOC",33160,"ST AUBIN DE MEDOC",,"44.9333497941","-0.748518197327",376,,"Saint-Aubin-de-Médoc","Saint-Aubin-de-Médoc"
33377,"ST AVIT DE SOULEGE",33220,"ST AVIT DE SOULEGE",,"44.8116266609","0.120263165999",377,,"Saint-Avit-de-Soulège","Saint-Avit-de-Soulège"
33378,"ST AVIT ST NAZAIRE",33220,"ST AVIT ST NAZAIRE",,"44.8478527826","0.274744250182",378,,"Saint-Avit-Saint-Nazaire","Saint-Avit-Saint-Nazaire"
33378,"ST AVIT ST NAZAIRE",33220,"ST AVIT ST NAZAIRE","ST NAZAIRE","44.8478527826","0.274744250182",378,,"Saint-Avit-Saint-Nazaire","Saint-Avit-Saint-Nazaire"
33379,"ST BRICE",33540,"ST BRICE",,"44.6937696181","-0.141055094504",379,,"Saint-Brice","Saint-Brice"
33380,"ST CAPRAIS DE BLAYE",33820,"ST CAPRAIS DE BLAYE",,"45.2880354799","-0.566771692266",380,,"Saint-Caprais-de-Blaye","Saint-Caprais-de-Blaye"
33381,"ST CAPRAIS DE BORDEAUX",33880,"ST CAPRAIS DE BORDEAUX",,"44.7540788366","-0.427673567177",381,,"Saint-Caprais-de-Bordeaux","Saint-Caprais-de-Bordeaux"
33382,"ST CHRISTOLY DE BLAYE",33920,"ST CHRISTOLY DE BLAYE",,"45.1439978714","-0.496519035518",382,,"Saint-Christoly-de-Blaye","Saint-Christoly-de-Blaye"
33383,"ST CHRISTOLY MEDOC",33340,"ST CHRISTOLY MEDOC",,"45.3574015951","-0.834464734201",383,,"Saint-Christoly-Médoc","Saint-Christoly-Médoc"
33384,"ST CHRISTOPHE DES BARDES",33330,"ST CHRISTOPHE DES BARDES",,"44.8971613275","-0.12024751685",384,,"Saint-Christophe-des-Bardes","Saint-Christophe-des-Bardes"
33385,"ST CHRISTOPHE DE DOUBLE",33230,"ST CHRISTOPHE DE DOUBLE",,"45.0834847193","0.0231131592109",385,,"Saint-Christophe-de-Double","Saint-Christophe-de-Double"
33386,"ST CIBARD",33570,"ST CIBARD",,"44.9384422603","-0.0230796373172",386,,"Saint-Cibard","Saint-Cibard"
33387,"ST CIERS D ABZAC",33910,"ST CIERS D ABZAC",,"45.0354269369","-0.288732170922",387,,"Saint-Ciers-d'Abzac","Saint-Ciers-d'Abzac"
33388,"ST CIERS DE CANESSE",33710,"ST CIERS DE CANESSE",,"45.0873767558","-0.602217523862",388,,"Saint-Ciers-de-Canesse","Saint-Ciers-de-Canesse"
33389,"ST CIERS SUR GIRONDE",33820,"ST CIERS SUR GIRONDE",,"45.2980782445","-0.648058188533",389,,"Saint-Ciers-sur-Gironde","Saint-Ciers-sur-Gironde"
33390,"STE COLOMBE",33350,"STE COLOMBE",,"44.8789588977","-0.0634971172004",390,,"Sainte-Colombe","Sainte-Colombe"
33391,"ST COME",33430,"ST COME",,"44.4249739922","-0.174304293799",391,,"Saint-Côme","Saint-Côme"
33392,"STE CROIX DU MONT",33410,"STE CROIX DU MONT",,"44.5979961934","-0.272147017146",392,,"Sainte-Croix-du-Mont","Sainte-Croix-du-Mont"
33393,"ST DENIS DE PILE",33910,"ST DENIS DE PILE",,"44.9879017706","-0.183958862029",393,,"Saint-Denis-de-Pile","Saint-Denis-de-Pile"
33394,"ST EMILION",33330,"ST EMILION",,"44.8999911844","-0.169955105989",394,,"Saint-Émilion","Saint-Émilion"
33395,"ST ESTEPHE",33180,"ST ESTEPHE",,"45.2509775886","-0.781613837384",395,,"Saint-Estèphe","Saint-Estèphe"
33396,"ST ETIENNE DE LISSE",33330,"ST ETIENNE DE LISSE",,"44.880960315","-0.0941588854927",396,,"Saint-Étienne-de-Lisse","Saint-Étienne-de-Lisse"
33397,"STE EULALIE",33560,"STE EULALIE",,"44.9016662079","-0.479039252599",397,,"Sainte-Eulalie","Sainte-Eulalie"
33398,"ST EXUPERY",33190,"ST EXUPERY",,"44.6331784012","-0.100374502546",398,,"Saint-Exupéry","Saint-Exupéry"
33399,"ST FELIX DE FONCAUDE",33540,"ST FELIX DE FONCAUDE",,"44.6525452619","-0.104673473731",399,,"Saint-Félix-de-Foncaude","Saint-Félix-de-Foncaude"
33400,"ST FERME",33580,"ST FERME",,"44.6953149671","0.0615909665111",400,,"Saint-Ferme","Saint-Ferme"
33401,"STE FLORENCE",33350,"STE FLORENCE",,"44.8173313426","-0.0924823027936",401,,"Sainte-Florence","Sainte-Florence"
33402,"STE FOY LA GRANDE",33220,"STE FOY LA GRANDE",,"44.8408428381","0.217540501109",402,,"Sainte-Foy-la-Grande","Sainte-Foy-la-Grande"
33403,"STE FOY LA LONGUE",33490,"STE FOY LA LONGUE",,"44.615535673","-0.142468985592",403,,"Sainte-Foy-la-Longue","Sainte-Foy-la-Longue"
33404,"STE GEMME",33580,"STE GEMME",,"44.6180963158","0.0736487066839",404,,"Sainte-Gemme","Sainte-Gemme"
33405,"ST GENES DE BLAYE",33390,"ST GENES DE BLAYE",,"45.1613439952","-0.668437136605",405,,"Saint-Genès-de-Blaye","Saint-Genès-de-Blaye"
33406,"ST GENES DE CASTILLON",33350,"ST GENES DE CASTILLON",,"44.899794746","-0.0641790008053",406,,"Saint-Genès-de-Castillon","Saint-Genès-de-Castillon"
33407,"ST GENES DE FRONSAC",33240,"ST GENES DE FRONSAC",,"45.0267396245","-0.345881901281",407,,"Saint-Genès-de-Fronsac","Saint-Genès-de-Fronsac"
33408,"ST GENES DE LOMBAUD",33670,"ST GENES DE LOMBAUD",,"44.7540640198","-0.378689815135",408,,"Saint-Genès-de-Lombaud","Saint-Genès-de-Lombaud"
33409,"ST GENIS DU BOIS",33760,"ST GENIS DU BOIS",,"44.6998143396","-0.183471650836",409,,"Saint-Genis-du-Bois","Saint-Genis-du-Bois"
33411,"ST GERMAIN DE GRAVE",33490,"ST GERMAIN DE GRAVE",,"44.6234269456","-0.217898533174",411,,"Saint-Germain-de-Grave","Saint-Germain-de-Grave"
33412,"ST GERMAIN D ESTEUIL",33340,"ST GERMAIN D ESTEUIL",,"45.2552033922","-0.895235523992",412,,"Saint-Germain-d'Esteuil","Saint-Germain-d'Esteuil"
33413,"ST GERMAIN DU PUCH",33750,"ST GERMAIN DU PUCH",,"44.8518771746","-0.334057269081",413,,"Saint-Germain-du-Puch","Saint-Germain-du-Puch"
33414,"ST GERMAIN DE LA RIVIERE",33240,"ST GERMAIN DE LA RIVIERE",,"44.9440812975","-0.330721356984",414,,"Saint-Germain-de-la-Rivière","Saint-Germain-de-la-Rivière"
33415,"ST GERVAIS",33240,"ST GERVAIS",,"45.0168841442","-0.466644365612",415,,"Saint-Gervais","Saint-Gervais"
33416,"ST GIRONS D AIGUEVIVES",33920,"ST GIRONS D AIGUEVIVES",,"45.1466416615","-0.538156488225",416,,"Saint-Girons-d'Aiguevives","Saint-Girons-d'Aiguevives"
33417,"STE HELENE",33480,"STE HELENE",,"44.9726615806","-0.913525242529",417,,"Sainte-Hélène","Sainte-Hélène"
33418,"ST HILAIRE DE LA NOAILLE",33190,"ST HILAIRE DE LA NOAILLE",,"44.6031750494","0.00530764786777",418,,"Saint-Hilaire-de-la-Noaille","Saint-Hilaire-de-la-Noaille"
33419,"ST HILAIRE DU BOIS",33540,"ST HILAIRE DU BOIS",,"44.6612294768","-0.0744756650033",419,,"Saint-Hilaire-du-Bois","Saint-Hilaire-du-Bois"
33420,"ST HIPPOLYTE",33330,"ST HIPPOLYTE",,"44.8740781768","-0.120995887254",420,,"Saint-Hippolyte","Saint-Hippolyte"
33421,"ST JEAN DE BLAIGNAC",33420,"ST JEAN DE BLAIGNAC",,"44.8093814613","-0.132286748685",421,,"Saint-Jean-de-Blaignac","Saint-Jean-de-Blaignac"
33422,"ST JEAN D ILLAC",33127,"ST JEAN D ILLAC",,"44.7934010703","-0.819193904642",422,,"Saint-Jean-d'Illac","Saint-Jean-d'Illac"
33423,"ST JULIEN BEYCHEVELLE",33250,"ST JULIEN BEYCHEVELLE",,"45.1572384693","-0.737068946375",423,,"Saint-Julien-Beychevelle","Saint-Julien-Beychevelle"
33424,"ST LAURENT MEDOC",33112,"ST LAURENT MEDOC",,"45.1404040788","-0.862340576235",424,,"Saint-Laurent-Médoc","Saint-Laurent-Médoc"
33425,"ST LAURENT D ARCE",33240,"ST LAURENT D ARCE",,"45.0430455574","-0.465863416208",425,,"Saint-Laurent-d'Arce","Saint-Laurent-d'Arce"
33426,"ST LAURENT DES COMBES",33330,"ST LAURENT DES COMBES",,"44.8731298275","-0.138268824153",426,,"Saint-Laurent-des-Combes","Saint-Laurent-des-Combes"
33427,"ST LAURENT DU BOIS",33540,"ST LAURENT DU BOIS",,"44.6406776819","-0.137803248191",427,,"Saint-Laurent-du-Bois","Saint-Laurent-du-Bois"
33428,"ST LAURENT DU PLAN",33190,"ST LAURENT DU PLAN",,"44.6255670089","-0.117013007902",428,,"Saint-Laurent-du-Plan","Saint-Laurent-du-Plan"
33429,"ST LEGER DE BALSON",33113,"ST LEGER DE BALSON",,"44.429710887","-0.441424293388",429,,"Saint-Léger-de-Balson","Saint-Léger-de-Balson"
33431,"ST LEON",33670,"ST LEON",,"44.7665724734","-0.276430909291",431,,"Saint-Léon","Saint-Léon"
33432,"ST LOUBERT",33210,"ST LOUBERT",,"44.5533634868","-0.168857964399",432,,"Saint-Loubert","Saint-Loubert"
33433,"ST LOUBES",33450,"ST LOUBES",,"44.9220849836","-0.430829260925",433,,"Saint-Loubès","Saint-Loubès"
33434,"ST LOUIS DE MONTFERRAND",33440,"ST LOUIS DE MONTFERRAND",,"44.9582743614","-0.533092800544",434,,"Saint-Louis-de-Montferrand","Saint-Louis-de-Montferrand"
33435,"ST MACAIRE",33490,"ST MACAIRE",,"44.5631655827","-0.232549072695",435,,"Saint-Macaire","Saint-Macaire"
33436,"ST MAGNE",33125,"ST MAGNE",,"44.5545369985","-0.658226760679",436,,"Saint-Magne","Saint-Magne"
33437,"ST MAGNE DE CASTILLON",33350,"ST MAGNE DE CASTILLON",,"44.8564111002","-0.0738465578343",437,,"Saint-Magne-de-Castillon","Saint-Magne-de-Castillon"
33438,"ST MAIXANT",33490,"ST MAIXANT",,"44.5770246409","-0.246142662745",438,,"Saint-Maixant","Saint-Maixant"
33439,"ST MARIENS",33620,"ST MARIENS",,"45.1211853951","-0.40505275637",439,,"Saint-Mariens","Saint-Mariens"
33440,"ST MARTIAL",33490,"ST MARTIAL",,"44.6326268868","-0.177651348773",440,,"Saint-Martial","Saint-Martial"
33441,"ST MARTIN LACAUSSADE",33390,"ST MARTIN LACAUSSADE",,"45.142779014","-0.642629661548",441,,"Saint-Martin-Lacaussade","Saint-Martin-Lacaussade"
33442,"ST MARTIN DE LAYE",33910,"ST MARTIN DE LAYE",,"45.0337147655","-0.232425034493",442,,"Saint-Martin-de-Laye","Saint-Martin-de-Laye"
33443,"ST MARTIN DE LERM",33540,"ST MARTIN DE LERM",,"44.6483155424","-0.0445021320501",443,,"Saint-Martin-de-Lerm","Saint-Martin-de-Lerm"
33444,"ST MARTIN DE SESCAS",33490,"ST MARTIN DE SESCAS",,"44.5868737063","-0.165403223369",444,,"Saint-Martin-de-Sescas","Saint-Martin-de-Sescas"
33445,"ST MARTIN DU BOIS",33910,"ST MARTIN DU BOIS",,"45.0202297197","-0.259099339397",445,,"Saint-Martin-du-Bois","Saint-Martin-du-Bois"
33446,"ST MARTIN DU PUY",33540,"ST MARTIN DU PUY",,"44.6732953187","-0.0351529488141",446,,"Saint-Martin-du-Puy","Saint-Martin-du-Puy"
33447,"ST MEDARD DE GUIZIERES",33230,"ST MEDARD DE GUIZIERES",,"45.0103439546","-0.0695991585994",447,,"Saint-Médard-de-Guizières","Saint-Médard-de-Guizières"
33448,"ST MEDARD D EYRANS",33650,"ST MEDARD D EYRANS",,"44.7113116565","-0.509379859547",448,,"Saint-Médard-d'Eyrans","Saint-Médard-d'Eyrans"
33449,"ST MEDARD EN JALLES",33160,"ST MEDARD EN JALLES",,"44.8832620816","-0.784239883546",449,,"Saint-Médard-en-Jalles","Saint-Médard-en-Jalles"
33450,"ST MICHEL DE CASTELNAU",33840,"ST MICHEL DE CASTELNAU",,"44.289942196","-0.0867837653969",450,,"Saint-Michel-de-Castelnau","Saint-Michel-de-Castelnau"
33451,"ST MICHEL DE FRONSAC",33126,"ST MICHEL DE FRONSAC",,"44.9260021181","-0.303356529349",451,,"Saint-Michel-de-Fronsac","Saint-Michel-de-Fronsac"
33452,"ST MICHEL DE RIEUFRET",33720,"ST MICHEL DE RIEUFRET",,"44.6247110153","-0.441646554916",452,,"Saint-Michel-de-Rieufret","Saint-Michel-de-Rieufret"
33453,"ST MICHEL DE LAPUJADE",33190,"ST MICHEL DE LAPUJADE",,"44.587647568","0.0785219724491",453,,"Saint-Michel-de-Lapujade","Saint-Michel-de-Lapujade"
33454,"ST MORILLON",33650,"ST MORILLON",,"44.6420351361","-0.519894969485",454,,"Saint-Morillon","Saint-Morillon"
33456,"ST PALAIS",33820,"ST PALAIS",,"45.3095196447","-0.598080918654",456,,"Saint-Palais","Saint-Palais"
33457,"ST PARDON DE CONQUES",33210,"ST PARDON DE CONQUES",,"44.5515180962","-0.188705431159",457,,"Saint-Pardon-de-Conques","Saint-Pardon-de-Conques"
33458,"ST PAUL",33390,"ST PAUL",,"45.1500987508","-0.590143244865",458,,"Saint-Paul","Saint-Paul"
33459,"ST PEY D ARMENS",33330,"ST PEY D ARMENS",,"44.8548887899","-0.118107156946",459,,"Saint-Pey-d'Armens","Saint-Pey-d'Armens"
33460,"ST PEY DE CASTETS",33350,"ST PEY DE CASTETS",,"44.81667563","-0.0640784363201",460,,"Saint-Pey-de-Castets","Saint-Pey-de-Castets"
33461,"ST PHILIPPE D AIGUILLE",33350,"ST PHILIPPE D AIGUILLE",,"44.9155884721","-0.0382526384701",461,,"Saint-Philippe-d'Aiguille","Saint-Philippe-d'Aiguille"
33462,"ST PHILIPPE DU SEIGNAL",33220,"ST PHILIPPE DU SEIGNAL",,"44.8241452564","0.25435223921",462,,"Saint-Philippe-du-Seignal","Saint-Philippe-du-Seignal"
33463,"ST PIERRE D AURILLAC",33490,"ST PIERRE D AURILLAC",,"44.5791928369","-0.192914222319",463,,"Saint-Pierre-d'Aurillac","Saint-Pierre-d'Aurillac"
33464,"ST PIERRE DE BAT",33760,"ST PIERRE DE BAT",,"44.6700408345","-0.219919179937",464,,"Saint-Pierre-de-Bat","Saint-Pierre-de-Bat"
33465,"ST PIERRE DE MONS",33210,"ST PIERRE DE MONS",,"44.5455986707","-0.213270603156",465,,"Saint-Pierre-de-Mons","Saint-Pierre-de-Mons"
33466,"ST QUENTIN DE BARON",33750,"ST QUENTIN DE BARON",,"44.8184515689","-0.281173860387",466,,"Saint-Quentin-de-Baron","Saint-Quentin-de-Baron"
33467,"ST QUENTIN DE CAPLONG",33220,"ST QUENTIN DE CAPLONG",,"44.7954078713","0.137421248916",467,,"Saint-Quentin-de-Caplong","Saint-Quentin-de-Caplong"
33468,"STE RADEGONDE",33350,"STE RADEGONDE",,"44.8030043488","0.0238709656269",468,,"Sainte-Radegonde","Sainte-Radegonde"
33470,"ST ROMAIN LA VIRVEE",33240,"ST ROMAIN LA VIRVEE",,"44.9594958204","-0.409988022855",470,,"Saint-Romain-la-Virvée","Saint-Romain-la-Virvée"
33471,"ST SAUVEUR",33250,"ST SAUVEUR",,"45.1949204348","-0.818681392214",471,,"Saint-Sauveur","Saint-Sauveur"
33472,"ST SAUVEUR DE PUYNORMAND",33660,"ST SAUVEUR DE PUYNORMAND",,"44.9957255079","-0.0320379299436",472,,"Saint-Sauveur-de-Puynormand","Saint-Sauveur-de-Puynormand"
33473,"ST SAVIN",33920,"ST SAVIN",,"45.1636697331","-0.441034693146",473,,"Saint-Savin","Saint-Savin"
33474,"ST SELVE",33650,"ST SELVE",,"44.6549808448","-0.472634663136",474,,"Saint-Selve","Saint-Selve"
33475,"ST SEURIN DE BOURG",33710,"ST SEURIN DE BOURG",,"45.0519405923","-0.58173269823",475,,"Saint-Seurin-de-Bourg","Saint-Seurin-de-Bourg"
33476,"ST SEURIN DE CADOURNE",33180,"ST SEURIN DE CADOURNE",,"45.2908187086","-0.80189992877",476,,"Saint-Seurin-de-Cadourne","Saint-Seurin-de-Cadourne"
33477,"ST SEURIN DE CURSAC",33390,"ST SEURIN DE CURSAC",,"45.1579570055","-0.627426326593",477,,"Saint-Seurin-de-Cursac","Saint-Seurin-de-Cursac"
33478,"ST SEURIN SUR L ISLE",33660,"ST SEURIN SUR L ISLE",,"45.0105769146","-0.0011367508014",478,,"Saint-Seurin-sur-l'Isle","Saint-Seurin-sur-l'Isle"
33479,"ST SEVE",33190,"ST SEVE",,"44.6068639564","-0.0241032514519",479,,"Saint-Sève","Saint-Sève"
33480,"ST SULPICE DE FALEYRENS",33330,"ST SULPICE DE FALEYRENS",,"44.8612319917","-0.188059653304",480,,"Saint-Sulpice-de-Faleyrens","Saint-Sulpice-de-Faleyrens"
33481,"ST SULPICE DE GUILLERAGUES",33580,"ST SULPICE DE GUILLERAGUES",,"44.6298211535","0.0478045586142",481,,"Saint-Sulpice-de-Guilleragues","Saint-Sulpice-de-Guilleragues"
33482,"ST SULPICE DE POMMIERS",33540,"ST SULPICE DE POMMIERS",,"44.6759704977","-0.113677268299",482,,"Saint-Sulpice-de-Pommiers","Saint-Sulpice-de-Pommiers"
33483,"ST SULPICE ET CAMEYRAC",33450,"ST SULPICE ET CAMEYRAC",,"44.9006929748","-0.386356667148",483,,"Saint-Sulpice-et-Cameyrac","Saint-Sulpice-et-Cameyrac"
33484,"ST SYMPHORIEN",33113,"ST SYMPHORIEN",,"44.4230431057","-0.540077855567",484,,"Saint-Symphorien","Saint-Symphorien"
33485,"STE TERRE",33350,"STE TERRE",,"44.8338850704","-0.120538591172",485,,"Sainte-Terre","Sainte-Terre"
33486,"ST TROJAN",33710,"ST TROJAN",,"45.0900998302","-0.580473676207",486,,"Saint-Trojan","Saint-Trojan"
33487,"ST VINCENT DE PAUL",33440,"ST VINCENT DE PAUL",,"44.9735956651","-0.481421340788",487,,"Saint-Vincent-de-Paul","Saint-Vincent-de-Paul"
33488,"ST VINCENT DE PERTIGNAS",33420,"ST VINCENT DE PERTIGNAS",,"44.798947903","-0.111709679595",488,,"Saint-Vincent-de-Pertignas","Saint-Vincent-de-Pertignas"
33489,"ST VIVIEN DE BLAYE",33920,"ST VIVIEN DE BLAYE",,"45.1041763192","-0.507779257628",489,,"Saint-Vivien-de-Blaye","Saint-Vivien-de-Blaye"
33490,"ST VIVIEN DE MEDOC",33590,"ST VIVIEN DE MEDOC",,"45.4448997838","-1.02531932797",490,,"Saint-Vivien-de-Médoc","Saint-Vivien-de-Médoc"
33491,"ST VIVIEN DE MONSEGUR",33580,"ST VIVIEN DE MONSEGUR",,"44.6162538241","0.116604904925",491,,"Saint-Vivien-de-Monségur","Saint-Vivien-de-Monségur"
33492,"ST YZAN DE SOUDIAC",33920,"ST YZAN DE SOUDIAC",,"45.1520899174","-0.405167820724",492,,"Saint-Yzan-de-Soudiac","Saint-Yzan-de-Soudiac"
33493,"ST YZANS DE MEDOC",33340,"ST YZANS DE MEDOC",,"45.3263969958","-0.813698621313",493,,"Saint-Yzans-de-Médoc","Saint-Yzans-de-Médoc"
33494,"SALAUNES",33160,"SALAUNES",,"44.9276818201","-0.845720627431",494,,"Salaunes","Salaunes"
33496,"SALLEBOEUF",33370,"SALLEBOEUF",,"44.8438707092","-0.39299225545",496,,"Sallebœuf","Sallebœuf"
33498,"SALLES",33770,"SALLES",,"44.5414583126","-0.883819514854",498,,"Salles","Salles"
33499,"LES SALLES DE CASTILLON",33350,"LES SALLES DE CASTILLON",,"44.9144882685","0.0055966007677",499,"Les","Salles-de-Castillon","Les Salles-de-Castillon"
33500,"SAMONAC",33710,"SAMONAC",,"45.0708411612","-0.571604822734",500,,"Samonac","Samonac"
33501,"SAUCATS",33650,"SAUCATS",,"44.6513032071","-0.631639793816",501,,"Saucats","Saucats"
33502,"SAUGON",33920,"SAUGON",,"45.185092781","-0.501188471075",502,,"Saugon","Saugon"
33503,"SAUMOS",33680,"SAUMOS",,"44.9121930542","-1.00529484975",503,,"Saumos","Saumos"
33504,"SAUTERNES",33210,"SAUTERNES",,"44.531082109","-0.341531541732",504,,"Sauternes","Sauternes"
33505,"LA SAUVE",33670,"LA SAUVE",,"44.7629611039","-0.311980129147",505,"La","Sauve","La Sauve"
33506,"SAUVETERRE DE GUYENNE",33540,"SAUVETERRE DE GUYENNE",,"44.7005227855","-0.0766193491952",506,,"Sauveterre-de-Guyenne","Sauveterre-de-Guyenne"
33507,"SAUVIAC",33430,"SAUVIAC",,"44.4000851943","-0.183884357604",507,,"Sauviac","Sauviac"
33508,"SAVIGNAC",33124,"SAVIGNAC",,"44.5147062102","-0.108846337932",508,,"Savignac","Savignac"
33509,"SAVIGNAC DE L ISLE",33910,"SAVIGNAC DE L ISLE",,"44.9865629262","-0.24028093176",509,,"Savignac-de-l'Isle","Savignac-de-l'Isle"
33510,"SEMENS",33490,"SEMENS",,"44.6132843909","-0.232960926916",510,,"Semens","Semens"
33511,"SENDETS",33690,"SENDETS",,"44.4268508366","-0.0945303098396",511,,"Sendets","Sendets"
33512,"SIGALENS",33690,"SIGALENS",,"44.4549781979","-0.03281524291",512,,"Sigalens","Sigalens"
33513,"SILLAS",33690,"SILLAS",,"44.3693679441","-0.0585641941826",513,,"Sillas","Sillas"
33514,"SOULAC SUR MER",33780,"SOULAC SUR MER",,"45.493296382","-1.10918123147",514,,"Soulac-sur-Mer","Soulac-sur-Mer"
33515,"SOULIGNAC",33760,"SOULIGNAC",,"44.6965920718","-0.288037993647",515,,"Soulignac","Soulignac"
33516,"SOUSSAC",33790,"SOUSSAC",,"44.7356053144","0.0112731568221",516,,"Soussac","Soussac"
33517,"SOUSSANS",33460,"SOUSSANS",,"45.0563042075","-0.697907697302",517,,"Soussans","Soussans"
33518,"TABANAC",33550,"TABANAC",,"44.7242938143","-0.41077713329",518,,"Tabanac","Tabanac"
33519,"LE TAILLAN MEDOC",33320,"LE TAILLAN MEDOC",,"44.9111778103","-0.680843022546",519,"Le","Taillan-Médoc","Le Taillan-Médoc"
33520,"TAILLECAVAT",33580,"TAILLECAVAT",,"44.6516434707","0.157497869369",520,,"Taillecavat","Taillecavat"
33521,"TALAIS",33590,"TALAIS",,"45.4760792837","-1.06152819999",521,,"Talais","Talais"
33522,"TALENCE",33400,"TALENCE",,"44.8060817507","-0.591124592873",522,,"Talence","Talence"
33523,"TARGON",33760,"TARGON",,"44.7345410468","-0.267821650496",523,,"Targon","Targon"
33524,"TARNES",33240,"TARNES",,"44.9760038738","-0.355091111216",524,,"Tarnès","Tarnès"
33525,"TAURIAC",33710,"TAURIAC",,"45.0535176036","-0.505943273443",525,,"Tauriac","Tauriac"
33526,"TAYAC",33570,"TAYAC",,"44.9605098149","-0.023701712084",526,,"Tayac","Tayac"
33527,"LE TEICH",33470,"LE TEICH",,"44.5781043558","-1.02426702104",527,"Le","Teich","Le Teich"
33528,"LE TEMPLE",33680,"LE TEMPLE",,"44.8635232625","-0.95904166915",528,"Le","Temple","Le Temple"
33529,"LA TESTE DE BUCH",33115,"LA TESTE DE BUCH","PYLA PLAGE","44.5561823053","-1.17530826791",529,"La","Teste-de-Buch","La Teste-de-Buch"
33529,"LA TESTE DE BUCH",33115,"LA TESTE DE BUCH","PYLA SUR MER","44.5561823053","-1.17530826791",529,"La","Teste-de-Buch","La Teste-de-Buch"
33529,"LA TESTE DE BUCH",33260,"LA TESTE DE BUCH",,"44.5561823053","-1.17530826791",529,"La","Teste-de-Buch","La Teste-de-Buch"
33529,"LA TESTE DE BUCH",33260,"LA TESTE DE BUCH","CAZAUX","44.5561823053","-1.17530826791",529,"La","Teste-de-Buch","La Teste-de-Buch"
33530,"TEUILLAC",33710,"TEUILLAC",,"45.0962146262","-0.547066877584",530,,"Teuillac","Teuillac"
33531,"TIZAC DE CURTON",33420,"TIZAC DE CURTON",,"44.8247322767","-0.242853466608",531,,"Tizac-de-Curton","Tizac-de-Curton"
33532,"TIZAC DE LAPOUYADE",33620,"TIZAC DE LAPOUYADE",,"45.0701772537","-0.314253428253",532,,"Tizac-de-Lapouyade","Tizac-de-Lapouyade"
33533,"TOULENNE",33210,"TOULENNE",,"44.5644281696","-0.275202743497",533,,"Toulenne","Toulenne"
33534,"LE TOURNE",33550,"LE TOURNE",,"44.717281049","-0.397019832374",534,"Le","Tourne","Le Tourne"
33535,"TRESSES",33370,"TRESSES",,"44.8419124871","-0.469935856995",535,,"Tresses","Tresses"
33536,"LE TUZAN",33125,"LE TUZAN",,"44.4493819137","-0.600499889851",536,"Le","Tuzan","Le Tuzan"
33537,"UZESTE",33730,"UZESTE",,"44.4334139021","-0.324575198234",537,,"Uzeste","Uzeste"
33538,"VALEYRAC",33340,"VALEYRAC",,"45.3906041453","-0.901076272339",538,,"Valeyrac","Valeyrac"
33539,"VAYRES",33870,"VAYRES",,"44.8910656059","-0.32583268578",539,,"Vayres","Vayres"
33540,"VENDAYS MONTALIVET",33930,"VENDAYS MONTALIVET",,"45.3394672808","-1.10059258014",540,,"Vendays-Montalivet","Vendays-Montalivet"
33541,"VENSAC",33590,"VENSAC",,"45.3988518423","-1.07454435969",541,,"Vensac","Vensac"
33542,"VERAC",33240,"VERAC",,"44.9940061941","-0.336975920597",542,,"Vérac","Vérac"
33543,"VERDELAIS",33490,"VERDELAIS",,"44.592150286","-0.248104423488",543,,"Verdelais","Verdelais"
33544,"LE VERDON SUR MER",33123,"LE VERDON SUR MER",,"45.5385656326","-1.07975440879",544,"Le","Verdon-sur-Mer","Le Verdon-sur-Mer"
33545,"VERTHEUIL",33180,"VERTHEUIL",,"45.2541334712","-0.845409908523",545,,"Vertheuil","Vertheuil"
33546,"VIGNONET",33330,"VIGNONET",,"44.8496333181","-0.149970090399",546,,"Vignonet","Vignonet"
33547,"VILLANDRAUT",33730,"VILLANDRAUT",,"44.4500209214","-0.380716602185",547,,"Villandraut","Villandraut"
33548,"VILLEGOUGE",33141,"VILLEGOUGE",,"44.9726067996","-0.312917809378",548,,"Villegouge","Villegouge"
33549,"VILLENAVE DE RIONS",33550,"VILLENAVE DE RIONS",,"44.6900368353","-0.340475124809",549,,"Villenave-de-Rions","Villenave-de-Rions"
33550,"VILLENAVE D ORNON",33140,"VILLENAVE D ORNON",,"44.773185218","-0.558212256384",550,,"Villenave-d'Ornon","Villenave-d'Ornon"
33550,"VILLENAVE D ORNON",33140,"VILLENAVE D ORNON","PONT DE LA MAYE","44.773185218","-0.558212256384",550,,"Villenave-d'Ornon","Villenave-d'Ornon"
33551,"VILLENEUVE",33710,"VILLENEUVE",,"45.0812887735","-0.63981215902",551,,"Villeneuve","Villeneuve"
33552,"VIRELADE",33720,"VIRELADE",,"44.6522568451","-0.395140990742",552,,"Virelade","Virelade"
33553,"VIRSAC",33240,"VIRSAC",,"45.0259020314","-0.435395776761",553,,"Virsac","Virsac"
33554,"YVRAC",33370,"YVRAC",,"44.8802372837","-0.466351132109",554,,"Yvrac","Yvrac"
33555,"MARCHEPRIME",33380,"MARCHEPRIME",,"44.7030054504","-0.856342535157",555,,"Marcheprime","Marcheprime"
